start=new Date('2022-03-22T00:00:00.000Z').valueOf();
sats=[{"NORAD_CAT_ID":"49144","ECCENTRICITY":"0.00033060","MEAN_MOTION_DOT":"-0.00034901","TIME_SYSTEM":"UTC","TLE_LINE2":"2 49144  70.0031 347.3262 0003306 282.1386 287.8794 14.98334957  3577","OBJECT_NAME":"STARLINK-3100","CLASSIFICATION_TYPE":"U","BSTAR":"-0.00293130000000","DECAY_DATE":null,"OBJECT_TYPE":"PAYLOAD","GP_ID":"199349844","PERIOD":"96.107","MEAN_ANOMALY":"287.8794","MEAN_MOTION_DDOT":"0.0000000000000","OBJECT_ID":"2021-082Q","LAUNCH_DATE":"2021-09-14","EPHEMERIS_TYPE":"0","SITE":"AFWTR","FILE":"3368836","EPOCH":"2022-03-21T22:00:00.999936","SEMIMAJOR_AXIS":"6950.178","RCS_SIZE":"LARGE","COUNTRY_CODE":"US","RA_OF_ASC_NODE":"347.3262","MEAN_MOTION":"14.98334957","MEAN_ELEMENT_THEORY":"SGP4","REF_FRAME":"TEME","REV_AT_EPOCH":"357","ELEMENT_SET_NO":"999","INCLINATION":"70.0031","CENTER_NAME":"EARTH","ARG_OF_PERICENTER":"282.1386","TLE_LINE1":"1 49144U 21082Q   22080.91667824 -.00034901  00000-0 -29313-2 0  9999","PERIAPSIS":"569.745","APOAPSIS":"574.340"},{"OBJECT_TYPE":"PAYLOAD","DECAY_DATE":null,"BSTAR":"0.00018924000000","CLASSIFICATION_TYPE":"U","OBJECT_NAME":"STARLINK-3119","TLE_LINE2":"2 49145  69.9995 316.1818 0003400 249.2713   4.4505 15.69682117  3697","TIME_SYSTEM":"UTC","MEAN_MOTION_DOT":"0.00022376","ECCENTRICITY":"0.00034000","NORAD_CAT_ID":"49145","FILE":"3368836","SITE":"AFWTR","EPHEMERIS_TYPE":"0","OBJECT_ID":"2021-082R","LAUNCH_DATE":"2021-09-14","MEAN_MOTION_DDOT":"0.0000000000000","MEAN_ANOMALY":"4.4505","PERIOD":"91.738","GP_ID":"199350097","INCLINATION":"69.9995","REV_AT_EPOCH":"369","ELEMENT_SET_NO":"999","MEAN_ELEMENT_THEORY":"SGP4","REF_FRAME":"TEME","RA_OF_ASC_NODE":"316.1818","MEAN_MOTION":"15.69682117","RCS_SIZE":"LARGE","COUNTRY_CODE":"US","SEMIMAJOR_AXIS":"6737.944","EPOCH":"2022-03-21T22:00:00.999936","APOAPSIS":"362.099","PERIAPSIS":"357.518","TLE_LINE1":"1 49145U 21082R   22080.91667824  .00022376  00000-0  18924-3 0  9998","ARG_OF_PERICENTER":"249.2713","CENTER_NAME":"EARTH"},{"MEAN_ELEMENT_THEORY":"SGP4","REF_FRAME":"TEME","ELEMENT_SET_NO":"999","REV_AT_EPOCH":"358","INCLINATION":"69.9987","EPOCH":"2022-03-21T22:00:00.999936","RCS_SIZE":"LARGE","COUNTRY_CODE":"US","SEMIMAJOR_AXIS":"6955.212","RA_OF_ASC_NODE":"326.3385","MEAN_MOTION":"14.96708536","TLE_LINE1":"1 49146U 21082S   22080.91667824 -.00014382  00000-0 -12513-2 0  9996","APOAPSIS":"579.302","PERIAPSIS":"574.852","CENTER_NAME":"EARTH","ARG_OF_PERICENTER":"281.0551","OBJECT_NAME":"STARLINK-3116","CLASSIFICATION_TYPE":"U","OBJECT_TYPE":"PAYLOAD","BSTAR":"-0.00125130000000","DECAY_DATE":null,"ECCENTRICITY":"0.00031990","NORAD_CAT_ID":"49146","TIME_SYSTEM":"UTC","MEAN_MOTION_DOT":"-0.00014382","TLE_LINE2":"2 49146  69.9987 326.3385 0003199 281.0551 300.2239 14.96708536  3582","FILE":"3368836","PERIOD":"96.211","GP_ID":"199350846","MEAN_MOTION_DDOT":"0.0000000000000","MEAN_ANOMALY":"300.2239","LAUNCH_DATE":"2021-09-14","OBJECT_ID":"2021-082S","SITE":"AFWTR","EPHEMERIS_TYPE":"0"},{"LAUNCH_DATE":"2021-09-14","OBJECT_ID":"2021-082T","SITE":"AFWTR","EPHEMERIS_TYPE":"0","PERIOD":"91.739","GP_ID":"199349096","MEAN_MOTION_DDOT":"0.0000000000000","MEAN_ANOMALY":"352.5739","FILE":"3368836","TLE_LINE2":"2 49147  69.9996 316.1879 0003582 254.7966 352.5739 15.69677693  3698","ECCENTRICITY":"0.00035820","NORAD_CAT_ID":"49147","TIME_SYSTEM":"UTC","MEAN_MOTION_DOT":"0.00008188","CLASSIFICATION_TYPE":"U","OBJECT_TYPE":"PAYLOAD","BSTAR":"0.00007050000000","DECAY_DATE":null,"OBJECT_NAME":"STARLINK-3071","ARG_OF_PERICENTER":"254.7966","CENTER_NAME":"EARTH","TLE_LINE1":"1 49147U 21082T   22080.91667824  .00008188  00000-0  70500-4 0  9994","APOAPSIS":"362.235","PERIAPSIS":"357.408","MEAN_MOTION":"15.69677693","RA_OF_ASC_NODE":"316.1879","EPOCH":"2022-03-21T22:00:00.999936","RCS_SIZE":"LARGE","COUNTRY_CODE":"US","SEMIMAJOR_AXIS":"6737.956","INCLINATION":"69.9996","MEAN_ELEMENT_THEORY":"SGP4","REF_FRAME":"TEME","ELEMENT_SET_NO":"999","REV_AT_EPOCH":"369"},{"RA_OF_ASC_NODE":"326.3359","MEAN_MOTION":"14.96720109","EPOCH":"2022-03-21T22:00:00.999936","SEMIMAJOR_AXIS":"6955.176","COUNTRY_CODE":"US","RCS_SIZE":"LARGE","INCLINATION":"69.9973","MEAN_ELEMENT_THEORY":"SGP4","REF_FRAME":"TEME","REV_AT_EPOCH":"358","ELEMENT_SET_NO":"999","ARG_OF_PERICENTER":"281.7361","CENTER_NAME":"EARTH","TLE_LINE1":"1 49148U 21082U   22080.91667824 -.00013443  00000-0 -11686-2 0  9995","PERIAPSIS":"574.668","APOAPSIS":"579.413","TLE_LINE2":"2 49148  69.9973 326.3359 0003411 281.7361 325.6625 14.96720109  3583","NORAD_CAT_ID":"49148","ECCENTRICITY":"0.00034110","MEAN_MOTION_DOT":"-0.00013443","TIME_SYSTEM":"UTC","CLASSIFICATION_TYPE":"U","BSTAR":"-0.00116860000000","DECAY_DATE":null,"OBJECT_TYPE":"PAYLOAD","OBJECT_NAME":"STARLINK-3048","LAUNCH_DATE":"2021-09-14","OBJECT_ID":"2021-082U","EPHEMERIS_TYPE":"0","SITE":"AFWTR","GP_ID":"199349346","PERIOD":"96.210","MEAN_ANOMALY":"325.6625","MEAN_MOTION_DDOT":"0.0000000000000","FILE":"3368836"},{"INCLINATION":"70.0020","MEAN_ELEMENT_THEORY":"SGP4","REF_FRAME":"TEME","ELEMENT_SET_NO":"999","REV_AT_EPOCH":"357","RA_OF_ASC_NODE":"347.3185","MEAN_MOTION":"14.98333971","EPOCH":"2022-03-21T22:00:00.999936","COUNTRY_CODE":"US","RCS_SIZE":"LARGE","SEMIMAJOR_AXIS":"6950.181","TLE_LINE1":"1 49149U 21082V   22080.91667824 -.00043282  00000-0 -36416-2 0  9998","APOAPSIS":"574.314","PERIAPSIS":"569.777","ARG_OF_PERICENTER":"287.0447","CENTER_NAME":"EARTH","CLASSIFICATION_TYPE":"U","OBJECT_TYPE":"PAYLOAD","BSTAR":"-0.00364160000000","DECAY_DATE":null,"OBJECT_NAME":"STARLINK-3053","TLE_LINE2":"2 49149  70.0020 347.3185 0003264 287.0447 308.6908 14.98333971  3573","ECCENTRICITY":"0.00032640","NORAD_CAT_ID":"49149","TIME_SYSTEM":"UTC","MEAN_MOTION_DOT":"-0.00043282","FILE":"3368836","LAUNCH_DATE":"2021-09-14","OBJECT_ID":"2021-082V","SITE":"AFWTR","EPHEMERIS_TYPE":"0","PERIOD":"96.107","GP_ID":"199350596","MEAN_MOTION_DDOT":"0.0000000000000","MEAN_ANOMALY":"308.6908"},{"INCLINATION":"70.0012","ELEMENT_SET_NO":"999","REV_AT_EPOCH":"357","REF_FRAME":"TEME","MEAN_ELEMENT_THEORY":"SGP4","RA_OF_ASC_NODE":"347.3152","MEAN_MOTION":"14.98342486","RCS_SIZE":"LARGE","COUNTRY_CODE":"US","SEMIMAJOR_AXIS":"6950.154","EPOCH":"2022-03-21T22:00:00.999936","APOAPSIS":"574.513","PERIAPSIS":"569.526","TLE_LINE1":"1 49150U 21082W   22080.91667824 -.00031051  00000-0 -26051-2 0  9995","ARG_OF_PERICENTER":"287.2830","CENTER_NAME":"EARTH","OBJECT_TYPE":"PAYLOAD","BSTAR":"-0.00260510000000","DECAY_DATE":null,"CLASSIFICATION_TYPE":"U","OBJECT_NAME":"STARLINK-3104","TLE_LINE2":"2 49150  70.0012 347.3152 0003588 287.2830 334.1407 14.98342486  3576","TIME_SYSTEM":"UTC","MEAN_MOTION_DOT":"-0.00031051","ECCENTRICITY":"0.00035880","NORAD_CAT_ID":"49150","FILE":"3368836","SITE":"AFWTR","EPHEMERIS_TYPE":"0","LAUNCH_DATE":"2021-09-14","OBJECT_ID":"2021-082W","MEAN_MOTION_DDOT":"0.0000000000000","MEAN_ANOMALY":"334.1407","PERIOD":"96.106","GP_ID":"199350348"},{"GP_ID":"199349595","PERIOD":"91.736","MEAN_ANOMALY":"3.3618","MEAN_MOTION_DDOT":"0.0000000000000","LAUNCH_DATE":"2021-09-14","OBJECT_ID":"2021-082X","EPHEMERIS_TYPE":"0","SITE":"AFWTR","FILE":"3368836","NORAD_CAT_ID":"49151","ECCENTRICITY":"0.00041210","MEAN_MOTION_DOT":"0.00031591","TIME_SYSTEM":"UTC","TLE_LINE2":"2 49151  70.0008 316.1690 0004121 256.7730   3.3618 15.69724792  3692","OBJECT_NAME":"STARLINK-3102","CLASSIFICATION_TYPE":"U","BSTAR":"0.00026564000000","DECAY_DATE":null,"OBJECT_TYPE":"PAYLOAD","CENTER_NAME":"EARTH","ARG_OF_PERICENTER":"256.7730","TLE_LINE1":"1 49151U 21082X   22080.91667824  .00031591  00000-0  26564-3 0  9993","PERIAPSIS":"356.910","APOAPSIS":"362.463","EPOCH":"2022-03-21T22:00:00.999936","SEMIMAJOR_AXIS":"6737.821","RCS_SIZE":"LARGE","COUNTRY_CODE":"US","MEAN_MOTION":"15.69724792","RA_OF_ASC_NODE":"316.1690","MEAN_ELEMENT_THEORY":"SGP4","REF_FRAME":"TEME","REV_AT_EPOCH":"369","ELEMENT_SET_NO":"999","INCLINATION":"70.0008"},{"REF_FRAME":"TEME","MEAN_ELEMENT_THEORY":"SGP4","REV_AT_EPOCH":"369","ELEMENT_SET_NO":"999","INCLINATION":"69.9995","EPOCH":"2022-03-21T22:00:00.999936","SEMIMAJOR_AXIS":"6737.847","COUNTRY_CODE":"US","RCS_SIZE":"LARGE","MEAN_MOTION":"15.69715809","RA_OF_ASC_NODE":"316.1599","TLE_LINE1":"1 49152U 21082Y   22080.91667824  .00026192  00000-0  22079-3 0  9992","PERIAPSIS":"357.243","APOAPSIS":"362.181","CENTER_NAME":"EARTH","ARG_OF_PERICENTER":"253.7591","OBJECT_NAME":"STARLINK-3081","CLASSIFICATION_TYPE":"U","BSTAR":"0.00022079000000","DECAY_DATE":null,"OBJECT_TYPE":"PAYLOAD","NORAD_CAT_ID":"49152","ECCENTRICITY":"0.00036640","MEAN_MOTION_DOT":"0.00026192","TIME_SYSTEM":"UTC","TLE_LINE2":"2 49152  69.9995 316.1599 0003664 253.7591  14.8678 15.69715809  3698","FILE":"3368836","GP_ID":"199349845","PERIOD":"91.736","MEAN_ANOMALY":"14.8678","MEAN_MOTION_DDOT":"0.0000000000000","OBJECT_ID":"2021-082Y","LAUNCH_DATE":"2021-09-14","EPHEMERIS_TYPE":"0","SITE":"AFWTR"},{"TLE_LINE2":"2 49153  69.9998 316.1627 0003579 252.2333  12.1360 15.69690093  3693","TIME_SYSTEM":"UTC","MEAN_MOTION_DOT":"0.00025566","ECCENTRICITY":"0.00035790","NORAD_CAT_ID":"49153","OBJECT_TYPE":"PAYLOAD","BSTAR":"0.00021580000000","DECAY_DATE":null,"CLASSIFICATION_TYPE":"U","OBJECT_NAME":"STARLINK-3072","SITE":"AFWTR","EPHEMERIS_TYPE":"0","LAUNCH_DATE":"2021-09-14","OBJECT_ID":"2021-082Z","MEAN_MOTION_DDOT":"0.0000000000000","MEAN_ANOMALY":"12.1360","PERIOD":"91.738","GP_ID":"199350098","FILE":"3368836","MEAN_MOTION":"15.69690093","RA_OF_ASC_NODE":"316.1627","COUNTRY_CODE":"US","RCS_SIZE":"LARGE","SEMIMAJOR_AXIS":"6737.921","EPOCH":"2022-03-21T22:00:00.999936","INCLINATION":"69.9998","ELEMENT_SET_NO":"999","REV_AT_EPOCH":"369","MEAN_ELEMENT_THEORY":"SGP4","REF_FRAME":"TEME","ARG_OF_PERICENTER":"252.2333","CENTER_NAME":"EARTH","APOAPSIS":"362.197","PERIAPSIS":"357.374","TLE_LINE1":"1 49153U 21082Z   22080.91667824  .00025566  00000-0  21580-3 0  9993"}];
